TEVEL2-6                
1 63215U 25052F   26068.64958975  .00021046  00000+0  70909-3 0  9996
2 63215  97.4016 325.0381 0004769  95.6604 264.5181 15.30760889 54861
STARLINK-35508          
1 65912U 25225C   26068.54616619  .00024218  00000+0  82749-3 0  9998
2 65912  53.1584 166.5253 0001090 112.1029 248.0088 15.30186433 24386
